ORBCOMM FM36            
1 25984U 99065E   25012.76268790  .00002006  00000+0  71265-3 0  9993
2 25984  45.0389 107.0721 0005408 239.2914 120.7402 14.37362882312055
ORBCOMM FM38            
1 33060U 08031A   25012.61169005  .00003137  00000+0  43681-3 0  9990
2 33060  48.4412 336.0574 0005319  84.8443 275.3079 14.80104420891694
ORBCOMM FM41            
1 33061U 08031B   25012.91966571  .00002921  00000+0  41218-3 0  9991
2 33061  48.4445 341.8622 0004597  69.7760 335.4503 14.79735420891238
ORBCOMM FM29            
1 33062U 08031C   25012.91110933  .00003238  00000+0  45335-3 0  9991
2 33062  48.4398 349.8678 0006285  69.6042 332.7398 14.79775965891143
ORBCOMM FM39            
1 33063U 08031D   25012.51840974  .00002800  00000+0  40799-3 0  9996
2 33063  48.4412  14.3773 0007282  41.2816 318.8648 14.78478537890757
